[Satellite]
VERSION=1.1
NAME=UiTMSat 1
NICKNAME=UiTMSat 1
TLE1=1 43589U 98067PD  20157.71887997  .00033513  00000-0  20945-3 0  9998
TLE2=2 43589  51.6354 347.0088 0003073  88.0656 272.0696 15.76523672104125
STATUS=0
